CTC1_L_00604007-03
1 43859U 22861PV  26070.40840278  .00000000  00000+0  00000-0 0  9995
2 43859  55.0000 180.0000 0000000   0.0000 144.0000  5.31014043    11
CTC1_L_00604007-04
1 43860U 23307OX  26070.40840278  .00000000  00000+0  00000-0 0  9993
2 43860  55.0000 180.0000 0000000   0.0000 180.0000  5.31014043    13
CTC1_L_00604007-05
1 43861U 25771QW  26070.40840278  .00000000  00000+0  00000-0 0  9991
2 43861  55.0000 180.0000 0000000   0.0000 216.0000  5.31014043    14
CTC1_L_00604007-06
1 43862U 25538UY  26070.40840278  .00000000  00000+0  00000-0 0  9993
2 43862  55.0000 180.0000 0000000   0.0000 252.0000  5.31014043    15
CTC1_L_00604007-07
1 43863U 22937D   26070.40840278  .00000000  00000+0  00000-0 0  9994
2 43863  55.0000 180.0000 0000000   0.0000 288.0000  5.31014043    15
CTC1_L_00604007-08
1 43864U 25369NP  26070.40840278  .00000000  00000+0  00000-0 0  9997
2 43864  55.0000 180.0000 0000000   0.0000 324.0000  5.31014043    17
CTC1_L_00604007-09
1 43865U 24492MM  26070.40840278  .00000000  00000+0  00000-0 0  9994
2 43865  55.0000 180.0000 0000000   0.0000   0.0000  5.31014043    19
CTC1_L_00604007-10
1 43866U 25717VQ  26070.40840278  .00000000  00000+0  00000-0 0  9996
2 43866  55.0000 180.0000 0000000   0.0000  36.0000  5.31014043    19
CTC1_L_00604008-01
1 43867U 23939EK  26070.40840278  .00000000  00000+0  00000-0 0  9991
2 43867  55.0000 210.0000 0000000   0.0000  84.0000  5.31014043    17
CTC1_L_00604008-02
1 43868U 24765XD  26070.40840278  .00000000  00000+0  00000-0 0  9990
2 43868  55.0000 210.0000 0000000   0.0000 120.0000  5.31014043    19
CTC1_L_00604008-03
1 43869U 22571YW  26070.40840278  .00000000  00000+0  00000-0 0  9994
2 43869  55.0000 210.0000 0000000   0.0000 156.0000  5.31014043    19
CTC1_L_00604008-04
1 43870U 25559KH  26070.40840278  .00000000  00000+0  00000-0 0  9995
2 43870  55.0000 210.0000 0000000   0.0000 192.0000  5.31014043    11
CTC1_L_00604008-05
1 43871U 22526UM  26070.40840278  .00000000  00000+0  00000-0 0  9997
2 43871  55.0000 210.0000 0000000   0.0000 228.0000  5.31014043    12
CTC1_L_00604008-06
1 43872U 22483GD  26070.40840278  .00000000  00000+0  00000-0 0  9990
2 43872  55.0000 210.0000 0000000   0.0000 264.0000  5.31014043    13
CTC1_L_00604008-07
1 43873U 25400YS  26070.40840278  .00000000  00000+0  00000-0 0  9993
2 43873  55.0000 210.0000 0000000   0.0000 300.0000  5.31014043    15
CTC1_L_00604008-08
1 43874U 24991MH  26070.40840278  .00000000  00000+0  00000-0 0  9998
2 43874  55.0000 210.0000 0000000   0.0000 336.0000  5.31014043    15
CTC1_L_00604008-09
1 43875U 23165WE  26070.40840278  .00000000  00000+0  00000-0 0  9991
2 43875  55.0000 210.0000 0000000   0.0000  12.0000  5.31014043    17
CTC1_L_00604008-10
1 43876U 23280ND  26070.40840278  .00000000  00000+0  00000-0 0  9990
2 43876  55.0000 210.0000 0000000   0.0000  48.0000  5.31014043    17
CTC1_L_00604009-01
1 43877U 24769QW  26070.40840278  .00000000  00000+0  00000-0 0  9994
2 43877  55.0000 240.0000 0000000   0.0000  96.0000  5.31014043    14
CTC1_L_00604009-02
1 43878U 24319QY  26070.40840278  .00000000  00000+0  00000-0 0  9996
2 43878  55.0000 240.0000 0000000   0.0000 132.0000  5.31014043    16
CTC1_L_00604009-03
1 43879U 24496UF  26070.40840278  .00000000  00000+0  00000-0 0  9993
2 43879  55.0000 240.0000 0000000   0.0000 168.0000  5.31014043    16
CTC1_L_00604009-04
1 43880U 25713RY  26070.40840278  .00000000  00000+0  00000-0 0  9998
2 43880  55.0000 240.0000 0000000   0.0000 204.0000  5.31014043    19
CTC1_L_00604009-05
1 43881U 25365TI  26070.40840278  .00000000  00000+0  00000-0 0  9992
2 43881  55.0000 240.0000 0000000   0.0000 240.0000  5.31014043    10
CTC1_L_00604009-06
1 43882U 25949L   26070.40840278  .00000000  00000+0  00000-0 0  9991
2 43882  55.0000 240.0000 0000000   0.0000 276.0000  5.31014043    10
CTC1_L_00604009-07
1 43883U 22868WW  26070.40840278  .00000000  00000+0  00000-0 0  9999
2 43883  55.0000 240.0000 0000000   0.0000 312.0000  5.31014043    12
CTC1_L_00604009-08
1 43884U 25347LG  26070.40840278  .00000000  00000+0  00000-0 0  9995
2 43884  55.0000 240.0000 0000000   0.0000 348.0000  5.31014043    12
CTC1_L_00604009-09
1 43885U 24971QW  26070.40840278  .00000000  00000+0  00000-0 0  9998
2 43885  55.0000 240.0000 0000000   0.0000  24.0000  5.31014043    14
CTC1_L_00604009-10
1 43886U 22392BV  26070.40840278  .00000000  00000+0  00000-0 0  9994
2 43886  55.0000 240.0000 0000000   0.0000  60.0000  5.31014043    15
CTC1_L_00604010-01
1 43887U 25434UR  26070.40840278  .00000000  00000+0  00000-0 0  9995
2 43887  55.0000 270.0000 0000000   0.0000 108.0000  5.31014043    12
CTC1_L_00604010-02
1 43888U 24417IL  26070.40840278  .00000000  00000+0  00000-0 0  9996
2 43888  55.0000 270.0000 0000000   0.0000 144.0000  5.31014043    13
CTC1_L_00604010-03
1 43889U 24196JY  26070.40840278  .00000000  00000+0  00000-0 0  9991
2 43889  55.0000 270.0000 0000000   0.0000 180.0000  5.31014043    14
CTC1_L_00604010-04
1 43890U 23291VQ  26070.40840278  .00000000  00000+0  00000-0 0  9998
2 43890  55.0000 270.0000 0000000   0.0000 216.0000  5.31014043    16
CTC1_L_00604010-05
1 43891U 22301QO  26070.40840278  .00000000  00000+0  00000-0 0  9990
2 43891  55.0000 270.0000 0000000   0.0000 252.0000  5.31014043    17
CTC1_L_00604010-06
1 43892U 24763PF  26070.40840278  .00000000  00000+0  00000-0 0  9995
2 43892  55.0000 270.0000 0000000   0.0000 288.0000  5.31014043    17
CTC1_L_00604010-07
1 43893U 24667TP  26070.40840278  .00000000  00000+0  00000-0 0  9999
2 43893  55.0000 270.0000 0000000   0.0000 324.0000  5.31014043    19
CTC1_L_00604010-08
1 43894U 23534CV  26070.40840278  .00000000  00000+0  00000-0 0  9992
2 43894  55.0000 270.0000 0000000   0.0000   0.0000  5.31014043    11
CTC1_L_00604010-09
1 43895U 25514TS  26070.40840278  .00000000  00000+0  00000-0 0  9993
2 43895  55.0000 270.0000 0000000   0.0000  36.0000  5.31014043    11
CTC1_L_00604010-10
1 43896U 22593NA  26070.40840278  .00000000  00000+0  00000-0 0  9998
2 43896  55.0000 270.0000 0000000   0.0000  72.0000  5.31014043    12
CTC1_L_00604011-01
1 43897U 26207YZ  26070.40840278  .00000000  00000+0  00000-0 0  9995
2 43897  55.0000 300.0000 0000000   0.0000 120.0000  5.31014043    11
CTC1_L_00604011-02
1 43898U 25369HF  26070.40840278  .00000000  00000+0  00000-0 0  9994
2 43898  55.0000 300.0000 0000000   0.0000 156.0000  5.31014043    11
CTC1_L_00604011-03
1 43899U 22998XC  26070.40840278  .00000000  00000+0  00000-0 0  9990
2 43899  55.0000 300.0000 0000000   0.0000 192.0000  5.31014043    12
CTC1_L_00604011-04
1 43900U 25593GK  26070.40840278  .00000000  00000+0  00000-0 0  9997
2 43900  55.0000 300.0000 0000000   0.0000 228.0000  5.31014043    15
CTC1_L_00604011-05
1 43901U 26916VW  26070.40840278  .00000000  00000+0  00000-0 0  9998
2 43901  55.0000 300.0000 0000000   0.0000 264.0000  5.31014043    16
CTC1_L_00604011-06
1 43902U 26965DO  26070.40840278  .00000000  00000+0  00000-0 0  9993
2 43902  55.0000 300.0000 0000000   0.0000 300.0000  5.31014043    18
CTC1_L_00604011-07
1 43903U 22817LX  26070.40840278  .00000000  00000+0  00000-0 0  9996
2 43903  55.0000 300.0000 0000000   0.0000 336.0000  5.31014043    18
CTC1_L_00604011-08
1 43904U 24359FG  26070.40840278  .00000000  00000+0  00000-0 0  9990
2 43904  55.0000 300.0000 0000000   0.0000  12.0000  5.31014043    10
CTC1_L_00604011-09
1 43905U 26521FQ  26070.40840278  .00000000  00000+0  00000-0 0  9994
2 43905  55.0000 300.0000 0000000   0.0000  48.0000  5.31014043    10
CTC1_L_00604011-10
1 43906U 23076NR  26070.40840278  .00000000  00000+0  00000-0 0  9997
2 43906  55.0000 300.0000 0000000   0.0000  84.0000  5.31014043    11
CTC1_L_00604012-01
1 43907U 25125SQ  26070.40840278  .00000000  00000+0  00000-0 0  9995
2 43907  55.0000 330.0000 0000000   0.0000 132.0000  5.31014043    19
CTC1_L_00604012-02
1 43908U 24335PK  26070.40840278  .00000000  00000+0  00000-0 0  9998
2 43908  55.0000 330.0000 0000000   0.0000 168.0000  5.31014043    19
CTC1_L_00604012-03
1 43909U 24003PW  26070.40840278  .00000000  00000+0  00000-0 0  9991
2 43909  55.0000 330.0000 0000000   0.0000 204.0000  5.31014043    11
CTC1_L_00604012-04
1 43910U 24952MY  26070.40840278  .00000000  00000+0  00000-0 0  9996
2 43910  55.0000 330.0000 0000000   0.0000 240.0000  5.31014043    13
CTC1_L_00604012-05
1 43911U 26141LX  26070.40840278  .00000000  00000+0  00000-0 0  9999
2 43911  55.0000 330.0000 0000000   0.0000 276.0000  5.31014043    13
CTC1_L_00604012-06
1 43912U 22960ZS  26070.40840278  .00000000  00000+0  00000-0 0  9995
2 43912  55.0000 330.0000 0000000   0.0000 312.0000  5.31014043    15
CTC1_L_00604012-07
1 43913U 25591MM  26070.40840278  .00000000  00000+0  00000-0 0  9999
2 43913  55.0000 330.0000 0000000   0.0000 348.0000  5.31014043    15
CTC1_L_00604012-08
1 43914U 23693MJ  26070.40840278  .00000000  00000+0  00000-0 0  9991
2 43914  55.0000 330.0000 0000000   0.0000  24.0000  5.31014043    17
CTC1_L_00604012-09
1 43915U 26466RB  26070.40840278  .00000000  00000+0  00000-0 0  9993
2 43915  55.0000 330.0000 0000000   0.0000  60.0000  5.31014043    18
CTC1_L_00604012-10
1 43916U 25639LA  26070.40840278  .00000000  00000+0  00000-0 0  9995
2 43916  55.0000 330.0000 0000000   0.0000  96.0000  5.31014043    18
